[{"OBJECT_NAME":"SMAP","OBJECT_ID":"2015-003A","EPOCH":"2026-03-09T22:25:54.867648","MEAN_MOTION":14.63339546,"ECCENTRICITY":0.00014204,"INCLINATION":98.1313,"RA_OF_ASC_NODE":77.4198,"ARG_OF_PERICENTER":111.7396,"MEAN_ANOMALY":248.3957,"EPHEMERIS_TYPE":0,"CLASSIFICATION_TYPE":"U","NORAD_CAT_ID":40376,"ELEMENT_SET_NO":999,"REV_AT_EPOCH":59310,"BSTAR":0.00014641179,"MEAN_MOTION_DOT":7.09e-6,"MEAN_MOTION_DDOT":0},{"OBJECT_NAME":"FENGYUN 1C DEB","OBJECT_ID":"1999-025ECC","EPOCH":"2026-03-09T15:19:27.151680","MEAN_MOTION":14.12237339,"ECCENTRICITY":0.0254119,"INCLINATION":98.2333,"RA_OF_ASC_NODE":218.8498,"ARG_OF_PERICENTER":98.5071,"MEAN_ANOMALY":322.0857,"EPHEMERIS_TYPE":0,"CLASSIFICATION_TYPE":"U","NORAD_CAT_ID":36996,"ELEMENT_SET_NO":999,"REV_AT_EPOCH":60918,"BSTAR":0.0014208,"MEAN_MOTION_DOT":3.508e-5,"MEAN_MOTION_DDOT":0}]
